[{"OBJECT_NAME":"STARLINK-30410","OBJECT_ID":"2023-141B","EPOCH":"2026-03-09T20:55:48.231264","MEAN_MOTION":15.30191856,"ECCENTRICITY":0.00013933,"INCLINATION":53.1598,"RA_OF_ASC_NODE":283.2442,"ARG_OF_PERICENTER":103.3134,"MEAN_ANOMALY":256.8022,"EPHEMERIS_TYPE":0,"CLASSIFICATION_TYPE":"U","NORAD_CAT_ID":57841,"ELEMENT_SET_NO":999,"REV_AT_EPOCH":14035,"BSTAR":3.5869498e-5,"MEAN_MOTION_DOT":7.03e-6,"MEAN_MOTION_DDOT":0},{"OBJECT_NAME":"SPACEMOBILE-001 DEB","OBJECT_ID":"2024-163F","EPOCH":"2026-03-09T07:17:56.452704","MEAN_MOTION":15.32884299,"ECCENTRICITY":0.00071876,"INCLINATION":52.9956,"RA_OF_ASC_NODE":27.518,"ARG_OF_PERICENTER":196.7865,"MEAN_ANOMALY":163.2898,"EPHEMERIS_TYPE":0,"CLASSIFICATION_TYPE":"U","NORAD_CAT_ID":62369,"ELEMENT_SET_NO":999,"REV_AT_EPOCH":7117,"BSTAR":0.00044817004,"MEAN_MOTION_DOT":0.00014099,"MEAN_MOTION_DDOT":0}]
